NORAD_CAT_ID,OBJECT_NAME,OBJECT_TYPE,EPOCH,MEAN_MOTION,ECCENTRICITY,INCLINATION,RA_OF_ASC_NODE,ARG_OF_PERICENTER,MEAN_ANOMALY,BSTAR,MEAN_MOTION_DOT,MEAN_MOTION_DDOT,TLE_LINE0,TLE_LINE1,TLE_LINE2,SEMIMAJOR_AXIS,PERIOD,APOGEE,PERIGEE,DECAYED
52586.0,STARLINK-3910,PAYLOAD,2023-01-18 20:18:22,15.08842649,0.0001094999999999,53.213,223.0166,75.1697,284.9416,0.00025401,3.757e-05,0.0,0 STARLINK-3910,1 52586U 22051BC  23018.84609204  .00003757  00000-0  25401-3 0  9990,2 52586  53.2130 223.0166 0001095  75.1697 284.9416 15.08842649 38600,6917.871999999999,95.437,540.495,538.98,0.0
52586.0,STARLINK-3910,PAYLOAD,2023-01-19 12:12:13,15.08838905,0.0001204,53.2126,220.0428,72.21600000000001,287.8963,6.8871e-05,8.08e-06,0.0,0 STARLINK-3910,1 52586U 22051BC  23019.50849305  .00000808  00000-0  68871-4 0  9995,2 52586  53.2126 220.0428 0001204  72.2160 287.8963 15.08838905 38775,6917.884,95.438,540.582,538.9159999999999,0.0
52586.0,STARLINK-3910,PAYLOAD,2023-01-20 08:52:14,15.08835909,0.0001139,53.2139,216.1769,83.8672,276.245,6.772399999999999e-05,7.9e-06,0.0,0 STARLINK-3910,1 52586U 22051BC  23020.36961501  .00000790  00000-0  67724-4 0  9990,2 52586  53.2139 216.1769 0001139  83.8672 276.2450 15.08835909 38837,6917.893,95.438,540.5459999999999,538.97,0.0
52586.0,STARLINK-3910,PAYLOAD,2023-01-20 19:59:56,15.0884065,0.0001113,53.214,214.0952,85.2057,274.9062,7.024e-05,8.3e-06,0.0,0 STARLINK-3910,1 52586U 22051BC  23020.83329179  .00000830  00000-0  70240-4 0  9993,2 52586  53.2140 214.0952 0001113  85.2057 274.9062 15.08840650 38973,6917.878000000001,95.438,540.513,538.9730000000001,0.0
52586.0,STARLINK-3910,PAYLOAD,2023-01-22 05:23:02,15.08837113,0.0001145,53.214,207.8504,94.144,265.9683,0.00016605,2.356e-05,0.0,0 STARLINK-3910,1 52586U 22051BC  23022.22433226  .00002356  00000-0  16605-3 0  9996,2 52586  53.2140 207.8504 0001145  94.1440 265.9683 15.08837113 39189,6917.889,95.438,540.5459999999999,538.962,0.0
52586.0,STARLINK-3910,PAYLOAD,2023-01-23 17:56:55,15.08815497,8.98e-05,53.2151,201.0087,100.2681,259.8412,0.00041432,6.308e-05,0.0,0 STARLINK-3910,1 52586U 22051BC  23023.74786117  .00006308  00000-0  41432-3 0  9991,2 52586  53.2151 201.0087 0000898 100.2681 259.8412 15.08815497 39412,6917.955,95.439,540.442,539.1990000000001,0.0
52586.0,STARLINK-3910,PAYLOAD,2023-01-23 21:07:40,15.08826351,0.0001182,53.2152,200.4135,95.9486,264.1641,0.00030779,4.612e-05,0.0,0 STARLINK-3910,1 52586U 22051BC  23023.88033378  .00004612  00000-0  30779-3 0  9998,2 52586  53.2152 200.4135 0001182  95.9486 264.1641 15.08826351 39436,6917.922,95.438,540.605,538.969,0.0
52586.0,STARLINK-3910,PAYLOAD,2023-01-24 17:47:41,15.08843947,0.0001186,53.2144,196.5488,90.4052,269.7076,9.722e-05,1.26e-05,0.0,0 STARLINK-3910,1 52586U 22051BC  23024.74144837  .00001260  00000-0  97220-4 0  9998,2 52586  53.2144 196.5488 0001186  90.4052 269.7076 15.08843947 39563,6917.868,95.437,540.554,538.913,0.0
52586.0,STARLINK-3910,PAYLOAD,2023-01-25 14:27:42,15.08835921,0.0001165999999999,53.2137,192.6851,80.7364,279.376,4.0048e-05,3.5000000000000004e-06,0.0,0 STARLINK-3910,1 52586U 22051BC  23025.60257589  .00000350  00000-0  40048-4 0  9998,2 52586  53.2137 192.6851 0001166  80.7364 279.3760 15.08835921 39696,6917.893,95.438,540.564,538.951,0.0
52586.0,STARLINK-3910,PAYLOAD,2023-01-25 17:38:28,15.08838517,0.0001114,53.2143,192.0891,88.0135,272.0984,5.8705e-05,6.47e-06,0.0,0 STARLINK-3910,1 52586U 22051BC  23025.73505328  .00000647  00000-0  58705-4 0  9997,2 52586  53.2143 192.0891 0001114  88.0135 272.0984 15.08838517 39648,6917.885,95.438,540.521,538.979,0.0
52586.0,STARLINK-3910,PAYLOAD,2023-01-26 14:18:29,15.08839882,0.0001115999999999,53.2145,188.2226,90.8654,269.2466,2.9054e-05,1.75e-06,0.0,0 STARLINK-3910,1 52586U 22051BC  23026.59617353  .00000175  00000-0  29054-4 0  9995,2 52586  53.2145 188.2226 0001116  90.8654 269.2466 15.08839882 39771,6917.880999999999,95.438,540.518,538.974,0.0
52586.0,STARLINK-3910,PAYLOAD,2023-01-26 15:53:52,15.0883966,0.000111,53.2146,187.9252,90.6767,269.4352,2.4274e-05,9.9e-07,0.0,0 STARLINK-3910,1 52586U 22051BC  23026.66241375  .00000099  00000-0  24274-4 0  9994,2 52586  53.2146 187.9252 0001110  90.6767 269.4352 15.08839660 39853,6917.880999999999,95.438,540.514,538.979,0.0
52586.0,STARLINK-3910,PAYLOAD,2023-01-26 17:29:15,15.08853911,0.0001371,53.2151,187.6269,105.7816,254.3327,-0.00011904,-2.183e-05,0.0,0 STARLINK-3910,1 52586U 22051BC  23026.72864858 -.00002183  00000-0 -11904-3 0  9991,2 52586  53.2151 187.6269 0001371 105.7816 254.3327 15.08853911 39867,6917.838000000001,95.437,540.651,538.754,0.0
52586.0,STARLINK-3910,PAYLOAD,2023-01-27 14:09:16,15.08836742,0.0001122,53.2155,183.7619,97.9411,262.1708,3.5312e-05,2.74e-06,0.0,0 STARLINK-3910,1 52586U 22051BC  23027.58977576  .00000274  00000-0  35312-4 0  9995,2 52586  53.2155 183.7619 0001122  97.9411 262.1708 15.08836742 39991,6917.89,95.438,540.5319999999999,538.979,0.0
52586.0,STARLINK-3910,PAYLOAD,2023-01-27 17:20:02,15.08839241,9.7e-05,53.2152,183.1671,91.0786,269.0318,4.4458e-05,4.2e-06,0.0,0 STARLINK-3910,1 52586U 22051BC  23027.72225418  .00000420  00000-0  44458-4 0  9996,2 52586  53.2152 183.1671 0000970  91.0786 269.0318 15.08839241 39945,6917.883000000001,95.438,540.419,539.077,0.0
52586.0,STARLINK-3910,PAYLOAD,2023-01-28 14:00:03,15.08834937,0.0001022,53.2153,179.3011,106.8876,253.2228,2.1943e-05,6.1e-07,0.0,0 STARLINK-3910,1 52586U 22051BC  23028.58337835  .00000061  00000-0  21943-4 0  9993,2 52586  53.2153 179.3011 0001022 106.8876 253.2228 15.08834937 40073,6917.896,95.438,540.468,539.054,0.0
52586.0,STARLINK-3910,PAYLOAD,2023-01-28 20:21:36,15.08839494,0.0001031,53.2156,178.1114,103.0726,257.0381,5.6291e-05,6.08e-06,0.0,0 STARLINK-3910,1 52586U 22051BC  23028.84833476  .00000608  00000-0  56291-4 0  9995,2 52586  53.2156 178.1114 0001031 103.0726 257.0381 15.08839494 40187,6917.882,95.438,540.46,539.034,0.0
52586.0,STARLINK-3910,PAYLOAD,2023-01-29 12:15:28,15.08831083,8.77e-05,53.2154,175.1386,89.2378,270.8714,-1.704e-05,-5.59e-06,0.0,0 STARLINK-3910,1 52586U 22051BC  23029.51074400 -.00000559  00000-0 -17040-4 0  9990,2 52586  53.2154 175.1386 0000877  89.2378 270.8714 15.08831083 40288,6917.908,95.438,540.379,539.166,0.0
52586.0,STARLINK-3910,PAYLOAD,2023-01-29 17:01:37,15.08836615,8.57e-05,53.2154,174.2468,81.2518,278.8571,2.8977e-05,1.73e-06,0.0,0 STARLINK-3910,1 52586U 22051BC  23029.70945971  .00000173  00000-0  28977-4 0  9992,2 52586  53.2154 174.2468 0000857  81.2518 278.8571 15.08836615 40314,6917.891,95.438,540.349,539.163,0.0
52586.0,STARLINK-3910,PAYLOAD,2023-01-30 12:06:15,15.08835175,7.75e-05,53.2154,170.6796,96.2241,263.884,3.6867e-05,2.99e-06,0.0,0 STARLINK-3910,1 52586U 22051BC  23030.50434140  .00000299  00000-0  36867-4 0  9999,2 52586  53.2154 170.6796 0000775  96.2241 263.8840 15.08835175 40364,6917.895,95.438,540.296,539.224,0.0
52586.0,STARLINK-3910,PAYLOAD,2023-01-31 02:24:42,15.0884367,6.9e-05,53.2153,168.0034,88.992,271.1151,2.1214e-05,5e-07,0.0,0 STARLINK-3910,1 52586U 22051BC  23031.10049642  .00000050  00000-0  21214-4 0  9990,2 52586  53.2153 168.0034 0000690  88.9920 271.1151 15.08843670 40521,6917.869,95.437,540.212,539.257,0.0
52586.0,STARLINK-3910,PAYLOAD,2023-01-31 11:57:02,15.08835034,7.32e-05,53.2149,166.2197,83.1059,277.0016,3.8923e-05,3.32e-06,0.0,0 STARLINK-3910,1 52586U 22051BC  23031.49794205  .00000332  00000-0  38923-4 0  9992,2 52586  53.2149 166.2197 0000732  83.1059 277.0016 15.08835034 40589,6917.896,95.438,540.267,539.254,0.0
52586.0,STARLINK-3910,PAYLOAD,2023-02-01 02:15:29,15.08843519,8.29e-05,53.2148,163.5434,80.6145,279.4941,7.0523e-05,8.35e-06,0.0,0 STARLINK-3910,1 52586U 22051BC  23032.09409587  .00000835  00000-0  70523-4 0  9995,2 52586  53.2148 163.5434 0000829  80.6145 279.4941 15.08843519 40677,6917.87,95.437,540.308,539.161,0.0
52586.0,STARLINK-3910,PAYLOAD,2023-02-01 11:47:49,15.08819884,0.0001086,53.2147,161.7563,98.2648,261.8468,0.00029232,4.365e-05,0.0,0 STARLINK-3910,1 52586U 22051BC  23032.49154475  .00004365  00000-0  29232-3 0  9994,2 52586  53.2147 161.7563 0001086  98.2648 261.8468 15.08819884 40732,6917.942,95.439,540.558,539.056,0.0
52586.0,STARLINK-3910,PAYLOAD,2023-02-01 13:23:12,15.08840542,9.78e-05,53.2153,161.4591,101.3999,258.7103,3.8103e-05,3.19e-06,0.0,0 STARLINK-3910,1 52586U 22051BC  23032.55777858  .00000319  00000-0  38103-4 0  9990,2 52586  53.2153 161.4591 0000978 101.3999 258.7103 15.08840542 40670,6917.879,95.438,540.42,539.067,0.0
52586.0,STARLINK-3910,PAYLOAD,2023-02-02 13:13:59,15.08840936,0.0001009,53.2148,157.0011,83.1309,276.9798,3.1549e-05,2.14e-06,0.0,0 STARLINK-3910,1 52586U 22051BC  23033.55137853  .00000214  00000-0  31549-4 0  9997,2 52586  53.2148 157.0011 0001009  83.1309 276.9798 15.08840936 40826,6917.878,95.437,540.441,539.045,0.0
52586.0,STARLINK-3910,PAYLOAD,2023-02-03 11:29:23,15.08872762,0.0001566,53.2151,152.8399,57.9272,302.1872,-0.0005626,-9.239e-05,0.0,0 STARLINK-3910,1 52586U 22051BC  23034.47873975 -.00009239  00000-0 -56260-3 0  9995,2 52586  53.2151 152.8399 0001566  57.9272 302.1872 15.08872762 41039,6917.78,95.435,540.729,538.562,0.0
52586.0,STARLINK-3910,PAYLOAD,2023-02-04 08:09:24,15.08836384,9.99e-05,53.2149,148.9715,98.9354,261.1751,1.0606e-05,-1.19e-06,0.0,0 STARLINK-3910,1 52586U 22051BC  23035.33986634 -.00000119  00000-0  10606-4 0  9990,2 52586  53.2149 148.9715 0000999  98.9354 261.1751 15.08836384 41163,6917.891,95.438,540.448,539.065,0.0
52586.0,STARLINK-3910,PAYLOAD,2023-02-04 12:55:33,15.08844392,9.72e-05,53.2156,148.0788,93.8125,266.2978,7.0321e-05,8.32e-06,0.0,0 STARLINK-3910,1 52586U 22051BC  23035.53857861  .00000832  00000-0  70321-4 0  9992,2 52586  53.2156 148.0788 0000972  93.8125 266.2978 15.08844392 41191,6917.867,95.437,540.404,539.06,0.0
